STARLINK-31521          
1 59015U 24036T   26068.26048187 -.00000510  00000+0 -51104-5 0  9996
2 59015  53.1608  80.3916 0001150  77.6173 282.4956 15.30193288115250
YAM-7                   
1 60504U 24149AN  26068.71799904  .00009009  00000+0  30984-3 0  9997
2 60504  97.3828 149.4631 0001973 296.5121  63.5918 15.30304554 86835
